{
    "links": {
        "self": "http://www.neowsapp.com/rest/v1/neo/54017290?api_key=iIulBulltgU6a56xZRHN4H3l9WmuAYTsLGpBGhQ2"
    },
    "id": "54017290",
    "neo_reference_id": "54017290",
    "name": "(2020 KP6)",
    "designation": "2020 KP6",
    "nasa_jpl_url": "http://ssd.jpl.nasa.gov/sbdb.cgi?sstr=54017290",
    "absolute_magnitude_h": 24.706,
    "estimated_diameter": {
        "kilometers": {
            "estimated_diameter_min": 0.0304337155,
            "estimated_diameter_max": 0.0680518567
        },
        "meters": {
            "estimated_diameter_min": 30.4337155121,
            "estimated_diameter_max": 68.0518566929
        },
        "miles": {
            "estimated_diameter_min": 0.0189106282,
            "estimated_diameter_max": 0.0422854502
        },
        "feet": {
            "estimated_diameter_min": 99.8481512006,
            "estimated_diameter_max": 223.2672535122
        }
    },
    "is_potentially_hazardous_asteroid": false,
    "close_approach_data": [
        {
            "close_approach_date": "1983-09-14",
            "close_approach_date_full": "1983-Sep-14 10:20",
            "epoch_date_close_approach": 432382800000,
            "relative_velocity": {
                "kilometers_per_second": "16.3678354784",
                "kilometers_per_hour": "58924.2077223041",
                "miles_per_hour": "36613.2111816728"
            },
            "miss_distance": {
                "astronomical": "0.2861229628",
                "lunar": "111.3018325292",
                "kilometers": "42803385.792969236",
                "miles": "26596790.6221820168"
            },
            "orbiting_body": "Earth"
        },
        {
            "close_approach_date": "1986-05-11",
            "close_approach_date_full": "1986-May-11 15:19",
            "epoch_date_close_approach": 516208740000,
            "relative_velocity": {
                "kilometers_per_second": "23.4005948227",
                "kilometers_per_hour": "84242.1413617103",
                "miles_per_hour": "52344.7905588916"
            },
            "miss_distance": {
                "astronomical": "0.4575646555",
                "lunar": "177.9926509895",
                "kilometers": "68450697.850083785",
                "miles": "42533291.349114833"
            },
            "orbiting_body": "Earth"
        },
        {
            "close_approach_date": "2003-06-01",
            "close_approach_date_full": "2003-Jun-01 10:00",
            "epoch_date_close_approach": 1054461600000,
            "relative_velocity": {
                "kilometers_per_second": "14.3129563048",
                "kilometers_per_hour": "51526.6426971065",
                "miles_per_hour": "32016.6519580993"
            },
            "miss_distance": {
                "astronomical": "0.1319399138",
                "lunar": "51.3246264682",
                "kilometers": "19737930.072463606",
                "miles": "12264581.0308495228"
            },
            "orbiting_body": "Earth"
        },
        {
            "close_approach_date": "2020-06-16",
            "close_approach_date_full": "2020-Jun-16 10:33",
            "epoch_date_close_approach": 1592303580000,
            "relative_velocity": {
                "kilometers_per_second": "10.7571654336",
                "kilometers_per_hour": "38725.7955611051",
                "miles_per_hour": "24062.70335851"
            },
            "miss_distance": {
                "astronomical": "0.0092366558",
                "lunar": "3.5930591062",
                "kilometers": "1381784.033603146",
                "miles": "858600.7846335748"
            },
            "orbiting_body": "Earth"
        },
        {
            "close_approach_date": "2063-05-14",
            "close_approach_date_full": "2063-May-14 17:27",
            "epoch_date_close_approach": 2946389220000,
            "relative_velocity": {
                "kilometers_per_second": "22.4115294157",
                "kilometers_per_hour": "80681.5058964181",
                "miles_per_hour": "50132.350149916"
            },
            "miss_distance": {
                "astronomical": "0.4227621098",
                "lunar": "164.4544607122",
                "kilometers": "63244311.142786126",
                "miles": "39298192.6627194988"
            },
            "orbiting_body": "Earth"
        }
    ],
    "orbital_data": {
        "orbit_id": "10",
        "orbit_determination_date": "2020-07-14 06:40:17",
        "first_observation_date": "2020-05-17",
        "last_observation_date": "2020-06-14",
        "data_arc_in_days": 28,
        "observations_used": 73,
        "orbit_uncertainty": "6",
        "minimum_orbit_intersection": ".00232998",
        "jupiter_tisserand_invariant": "3.640",
        "epoch_osculation": "2459000.5",
        "eccentricity": ".5227661295112908",
        "semi_major_axis": "2.003894623242242",
        "inclination": "9.430755735531873",
        "ascending_node_longitude": "83.46087057429975",
        "orbital_period": "1036.12164614171",
        "perihelion_distance": ".956326387101409",
        "perihelion_argument": "214.9372574799564",
        "aphelion_distance": "3.051462859383075",
        "perihelion_time": "2459043.613170851651",
        "mean_anomaly": "345.0203481759208",
        "mean_motion": ".3474495502922473",
        "equinox": "J2000",
        "orbit_class": {
            "orbit_class_type": "APO",
            "orbit_class_description": "Near-Earth asteroid orbits which cross the Earth’s orbit similar to that of 1862 Apollo",
            "orbit_class_range": "a (semi-major axis) > 1.0 AU; q (perihelion) < 1.017 AU"
        }
    },
    "is_sentry_object": false
}